0 FENGYUN 1C DEB
1 30194U 99025VB  13281.53053449  .00003975  00000-0  18275-2 0  5120
2 30194 101.2621 224.0099 0067343 092.5177 329.4715 14.20794737347955
0 FENGYUN 1C DEB
1 30194U 99025VB  13282.79658078  .00004967  00000-0  22751-2 0  5135
2 30194 101.2621 225.6192 0067373 089.1788 325.1563 14.20811181348137
0 FENGYUN 1C DEB
1 30194U 99025VB  13284.14822020  .00005165  00000-0  23637-2 0  5142
2 30194 101.2617 227.3381 0067524 085.6725 038.6557 14.20822723348325
0 FENGYUN 1C DEB
1 30194U 99025VB  13285.41432110  .00004338  00000-0  19897-2 0  5155
2 30194 101.2615 228.9482 0067658 082.3766 034.6947 14.20833769348500
0 FENGYUN 1C DEB
1 30194U 99025VB  13286.81035095  .00004983  00000-0  22804-2 0  5160
2 30194 101.2617 230.7234 0067746 078.7440 335.3706 14.20843868348701
0 FENGYUN 1C DEB
1 30194U 99025VB  13288.15998000  .00007640  00000-0  34774-2 0  5176
2 30194 101.2622 232.4395 0067874 075.2703 038.7250 14.20860278348892
0 FENGYUN 1C DEB
1 30194U 99025VB  13289.48860962  .00006088  00000-0  27765-2 0  5186
2 30194 101.2626 234.1290 0067983 071.8281 354.7717 14.20875398349083
0 FENGYUN 1C DEB
1 30194U 99025VB  13290.54209933  .00006850  00000-0  31195-2 0  5190
2 30194 101.2629 235.4686 0068075 069.1148 343.4875 14.20884287349238
0 FENGYUN 1C DEB
1 30194U 99025VB  13292.17403514  .00005804  00000-0  26469-2 0  5200
2 30194 101.2636 237.5437 0068203 064.8991 051.1130 14.20903001349462
0 FENGYUN 1C DEB
1 30194U 99025VB  13293.49857800  .00006487  00000-0  29534-2 0  5212
2 30194 101.2637 239.2281 0068318 061.4995 346.4302 14.20918779349653
0 FENGYUN 1C DEB
1 30194U 99025VB  13295.41451385  .00007639  00000-0  34706-2 0  5222
2 30194 101.2637 241.6650 0068370 056.5721 066.9837 14.20939198349925
